SARSAT 7 (NOAA 15)      
1 25338U 98030A   19088.57995971  .00000020  00000-0  27205-4 0  9991
2 25338  98.7542 109.9634 0011513 116.6987 243.5373 14.25899685 85433
METEOSAT-8 (MSG-1)      
1 27509U 02040B   19088.55934154  .00000125  00000-0  00000-0 0  9999
2 27509   5.9552  55.8878 0002730  15.6571 357.9479  1.00268941 60820
GPS BIIR-08             
1 27663U 03005A   19088.37257671 -.00000048  00000-0  00000+0 0  9998
2 27663  56.3713 319.4925 0106727  30.8916 149.7406  2.00578749118412
GPS BIIR-11             
1 28190U 04009A   19087.22097894 -.00000099  00000-0  00000+0 0  9997
2 28190  56.2545  20.3221 0092595  77.8856 146.4470  2.00569383110071
GPS BIIR-12             
1 28361U 04023A   19086.64394557 -.00000029  00000-0  00000+0 0  9997
2 28361  54.0495 193.5897 0131656 229.8880 210.4190  2.00569959108146
GPS BIIR-13             
1 28474U 04045A   19088.03232244 -.00000020  00000-0  00000+0 0  9996
2 28474  54.6645  71.0456 0191467 259.4713 106.7661  2.00563162105535
SARSAT 10 (NOAA 18)     
1 28654U 05018A   19088.59574137  .00000037  00000-0  45015-4 0  9995
2 28654  99.1071 134.3081 0014889  49.2323 311.0137 14.12412098713972
GPS BIIR-14M            
1 28874U 05038A   19088.18028726 -.00000103  00000-0  00000+0 0  9999
2 28874  56.3815  17.6276 0131406 261.9153 317.5089  2.00559115 98941
METEOSAT-9 (MSG-2)      
1 28912U 05049B   19088.33637382  .00000002  00000-0  00000-0 0  9993
2 28912   3.4998  71.3842 0001565 355.4929 243.9341  1.00275144 48592
GOES 13                 
1 29155U 06018A   19088.44173465 -.00000303  00000-0  00000+0 0  9993
2 29155   0.3869 283.3720 0012458 139.3148 223.0427  1.00270872 47079
SARSAT 11 (METOP-A)     
1 29499U 06044A   19088.61073413 -.00000022  00000-0  96483-5 0  9998
2 29499  98.5850 144.0624 0002117  98.7721  28.9483 14.21545123645362
GPS BIIR-16M            
1 29601U 06052A   19087.93287215 -.00000049  00000-0  00000+0 0  9996
2 29601  56.3509 318.4260 0073945  59.5227 301.2482  2.00563943 90562
GPS BIIR-17M            
1 32260U 07047A   19088.24405677 -.00000046  00000-0  00000+0 0  9992
2 32260  53.1723 189.2870 0110951  43.2277 317.6443  2.00564764 83949
GPS BIIR-18M            
1 32384U 07062A   19088.28843502 -.00000102  00000-0  00000+0 0  9996
2 32384  56.4637  18.2563 0006318  90.3196  80.1567  2.00552164 82680
SARSAT 12 (NOAA 19)     
1 33591U 09005A   19088.57382039  .00000028  00000-0  40665-4 0  9993
2 33591  99.1759  77.7530 0013050 244.3930 115.5893 14.12341364522196
GOES 14                 
1 35491U 09033A   19088.56602519 -.00000111  00000-0  00000+0 0  9990
2 35491   0.1064 105.1624 0007501 133.2556  47.6428  1.00272000 35711
GOES 15                 
1 36411U 10008A   19088.63979112  .00000036  00000-0  00000-0 0  9997
2 36411   0.0411 100.5562 0000865 170.6694  17.6647  1.00278606 33236
GLONASS-K 1             
1 37372U 11009A   19088.43668642 -.00000046  00000-0  00000+0 0  9998
2 37372  65.7060  42.7117 0009186 243.5110 292.0998  2.13107468 62908
GPS BIIF-2              
1 37753U 11036A   19088.06341611 -.00000010  00000-0  00000+0 0  9995
2 37753  55.8616  74.9117 0084282  38.0069 113.8246  2.00565903 56373
GSAT0101 (GALILEO-PFM)  
1 37846U 11060A   19088.14871604 -.00000049  00000-0  00000-0 0  9997
2 37846  56.3240  53.5988 0005236 328.9268  31.0213  1.70475838 46162
GSAT0102 (GALILEO-FM2)  
1 37847U 11060B   19087.78876184 -.00000049  00000-0  00000+0 0  9994
2 37847  56.3248  53.6078 0006608 313.4059 231.6578  1.70475786 46280
LUCH 5A                 
1 37951U 11074B   19088.63436201 -.00000073  00000-0  00000-0 0  9990
2 37951   2.3305 132.1748 0004067 240.8718 207.8248  1.00272228 26758
METEOSAT-10 (MSG-3)     
1 38552U 12035B   19088.33759513  .00000046  00000-0  00000+0 0  9995
2 38552   0.9963  14.1247 0001457  57.7909 245.5815  1.00280719 24773
SARSAT 13 (METOP-B)     
1 38771U 12049A   19088.59075510 -.00000011  00000-0  15011-4 0  9995
2 38771  98.7132 149.0139 0001479 142.7619 346.2901 14.21483975338683
GPS BIIF-3              
1 38833U 12053A   19088.33718992  .00000011  00000-0  00000+0 0  9995
2 38833  53.8092 251.7253 0081335  33.3051 327.1773  2.00557463 47445
GSAT0103 (GALILEO-FM3)  
1 38857U 12055A   19086.43100969 -.00000026  00000-0  00000-0 0  9999
2 38857  54.9236 174.1232 0003690 255.4963 104.4959  1.70473763 40176
GSAT0104 (GALILEO-FM4)  
1 38858U 12055B   19086.95184194 -.00000027  00000-0  00000-0 0  9990
2 38858  54.9242 174.1081 0002581 260.0819  99.9211  1.70473742 40183
GPS BIIF-4              
1 39166U 13023A   19088.19875835 -.00000105  00000-0  00000+0 0  9992
2 39166  56.0666  14.4292 0068210  24.2116 336.1094  2.00568273 42983
INSAT-3D                
1 39216U 13038B   19088.56745448 -.00000175  00000-0  00000-0 0  9999
2 39216   0.0143 197.2426 0001400 209.0088  66.7745  1.00272175 20679
GPS BIIF-5              
1 39533U 14008A   19087.69563371  .00000017  00000-0  00000+0 0  9998
2 39533  53.9433 257.1376 0038430 190.7597 169.1369  2.00570753 37339
LUCH 5V                 
1 39727U 14023A   19088.56998431 -.00000288  00000-0  00000-0 0  9998
2 39727   1.3827 302.3638 0003886  94.1760  90.0589  1.00271715536085
GPS BIIF-6              
1 39741U 14026A   19087.98238405 -.00000012  00000-0  00000+0 0  9994
2 39741  55.8421  74.4404 0018287 291.5857  68.2253  2.00577975 35621
GPS BIIF-7              
1 40105U 14045A   19088.07025134 -.00000042  00000-0  00000+0 0  9998
2 40105  54.5758 193.7919 0011350 101.9763 258.1519  2.00559186 34073
GSAT0201 (GALILEO 5)    
1 40128U 14050A   19087.56463425 -.00000113  00000-0  00000-0 0  9991
2 40128  50.5559  19.2163 1662144  84.8910 293.7456  1.85518647 29419
GSAT0202 (GALILEO 6)    
1 40129U 14050B   19087.83003772 -.00000113  00000-0  00000+0 0  9996
2 40129  50.6007  18.2262 1661554  85.7701 292.9192  1.85519345 31529
GPS BIIF-8              
1 40294U 14068A   19088.43415925 -.00000006  00000-0  00000-0 0  9994
2 40294  55.1522 134.6246 0018281  27.0646 333.0986  2.00577742 32328
GLONASS-K 2             
1 40315U 14075A   19088.28464389  .00000038  00000-0  00000+0 0  9990
2 40315  64.0820 282.5040 0014532 204.1095 320.9763  2.13098506 33664
GPS BIIF-9              
1 40534U 15013A   19087.58311799 -.00000045  00000-0  00000-0 0  9994
2 40534  54.5629 313.2233 0036950   4.8738 355.2009  2.00574900 28921
GSAT0203 (GALILEO 7)    
1 40544U 15017A   19086.75484289 -.00000051  00000-0  00000-0 0  9999
2 40544  56.1145  53.8342 0004837 276.8108  83.1125  1.70474980 24220
GSAT0204 (GALILEO 8)    
1 40545U 15017B   19088.29672746 -.00000049  00000-0  00000-0 0  9995
2 40545  56.1220  53.8051 0002281 274.8599  85.0934  1.70475377 24911
GPS BIIF-10             
1 40730U 15033A   19086.74069999 -.00000104  00000-0  00000+0 0  9998
2 40730  55.5925  13.8637 0044467 340.4280  19.4061  2.00559114 27097
METEOSAT-11 (MSG-4)     
1 40732U 15034A   19088.33558872 -.00000024  00000-0  00000+0 0  9992
2 40732   0.9036 221.8648 0000930 114.4739 330.5394  1.00271180 13605
GSAT0205 (GALILEO 9)    
1 40889U 15045A   19086.19413564 -.00000013  00000-0  00000-0 0  9996
2 40889  56.5115 294.4161 0004614  31.2257 328.8207  1.70474939 22026
GSAT0206 (GALILEO 10)   
1 40890U 15045B   19087.58701271 -.00000007  00000-0  00000-0 0  9990
2 40890  56.5095 294.3746 0002926  37.7443 322.2986  1.70475036 22071
GPS BIIF-11             
1 41019U 15062A   19088.28721158 -.00000007  00000-0  00000+0 0  9996
2 41019  55.1543 134.4435 0045473 207.1178 152.7108  2.00564731 24944
ELEKTRO-L 2             
1 41105U 15074A   19088.56623316 -.00000115  00000-0  00000-0 0  9994
2 41105   0.1727 122.8577 0002326 274.2668  69.3449  1.00270979 12081
GSAT0209 (GALILEO 12)   
1 41174U 15079A   19087.75814544 -.00000028  00000-0  00000-0 0  9993
2 41174  54.9374 173.7807 0004896 299.9123  60.0708  1.70474039 19989
GSAT0208 (GALILEO 11)   
1 41175U 15079B   19088.56456481 -.00000026  00000-0  00000-0 0  9994
2 41175  54.9356 173.7584 0004026 299.1904  60.8009  1.70474139 20419
GPS BIIF-12             
1 41328U 16007A   19087.88535321 -.00000040  00000-0  00000+0 0  9996
2 41328  54.8209 194.1673 0029101 216.2542 143.5494  2.00552331 22997
GSAT0211 (GALILEO 14)   
1 41549U 16030A   19088.10034231 -.00000005  00000-0  00000-0 0  9999
2 41549  56.6496 294.1713 0002325 351.2493   8.7704  1.70474763 17718
GSAT0210 (GALILEO 13)   
1 41550U 16030B   19087.80687215 -.00000006  00000-0  00000+0 0  9993
2 41550  56.6498 294.1811 0000711 311.9800  48.0369  1.70474848 17687
INSAT-3DR               
1 41752U 16054A   19088.58694140 -.00000096  00000-0  00000-0 0  9994
2 41752   0.0999  95.8501 0011746 186.5117 189.5963  1.00273274  9370
GSAT0207 (GALILEO 15)   
1 41859U 16069A   19086.29162859 -.00000026  00000-0  00000+0 0  9993
2 41859  54.5954 174.2958 0004620 287.4084  72.5741  1.70473916 14641
GSAT0212 (GALILEO 16)   
1 41860U 16069B   19087.90480059 -.00000028  00000-0  00000-0 0  9992
2 41860  54.5931 174.2508 0003622 306.3689  53.6283  1.70473965 14692
GSAT0213 (GALILEO 17)   
1 41861U 16069C   19087.09777711 -.00000028  00000-0  00000+0 0  9996
2 41861  54.5953 174.2764 0003856 264.8779  95.1096  1.70473997 14685
GSAT0214 (GALILEO 18)   
1 41862U 16069D   19087.24465629 -.00000028  00000-0  00000+0 0  9996
2 41862  54.5940 174.2682 0003110 269.5291  90.4665  1.70474057 14672
GOES 16                 
1 41866U 16071A   19088.52150251 -.00000267  00000-0  00000-0 0  9993
2 41866   0.0142 359.8281 0001036  71.0995 228.2261  1.00272598  8679
GSAT-17                 
1 42815U 17040B   19088.55952274 -.00000277  00000-0  00000-0 0  9994
2 42815   0.0326 122.3985 0003902 180.4308 178.7707  1.00272651  6389
GSAT0215 (GALILEO 19)   
1 43055U 17079A   19087.14583879 -.00000008  00000-0  00000-0 0  9990
2 43055  56.6252 294.0483 0000209  29.5723 330.4497  1.70473976  8017
GSAT0216 (GALILEO 20)   
1 43056U 17079B   19087.43890561 -.00000007  00000-0  00000+0 0  9990
2 43056  56.6254 294.0399 0001867 275.4756  84.5248  1.70474072  8003
GSAT0217 (GALILEO 21)   
1 43057U 17079C   19088.24549154 -.00000004  00000-0  00000+0 0  9997
2 43057  56.6226 294.0190 0001668 306.0567  53.9518  1.70474038  8037
GSAT0218 (GALILEO 22)   
1 43058U 17079D   19088.46543645 -.00000003  00000-0  00000-0 0  9991
2 43058  56.6231 294.0103 0002289 265.4923  94.5060  1.70474098  8064
GOES 17                 
1 43226U 18022A   19088.41646561  .00000079  00000-0  00000+0 0  9994
2 43226   0.0396   8.2191 0003229  22.9101 168.1016  1.00272128  3996
GSAT0221 (GALILEO 25)   
1 43564U 18060A   19087.19503367 -.00000050  00000-0  00000-0 0  9992
2 43564  56.5066  53.3311 0006026 286.8892  73.0232  1.70475942  4195
GSAT0222 (GALILEO 26)   
1 43565U 18060B   19087.41495232 -.00000050  00000-0  00000-0 0  9999
2 43565  56.5091  53.3237 0006007 293.3163  66.5991  1.70475982  4243
GSAT0219 (GALILEO 23)   
1 43566U 18060C   19088.22142869 -.00000049  00000-0  00000+0 0  9992
2 43566  56.5102  53.3031 0005545 291.0016  68.9179  1.70475824  4235
GSAT0220 (GALILEO 24)   
1 43567U 18060D   19087.85471590 -.00000049  00000-0  00000-0 0  9998
2 43567  56.5104  53.3131 0005657 291.0685  68.8498  1.70476013  4217
